{
  "norad_id": 68744,
  "name": "STARLINK-37344",
  "history": [
    {
      "epoch": "2026-04-23T13:04:09.153696Z",
      "apogee_km": 322.1914237392857,
      "perigee_km": 313.18379872278183,
      "latitude_deg": 6.354477775625548e-05,
      "longitude_deg": -71.94480321959388,
      "height_km": 325.07058127299837,
      "semi_major_axis_km": 6695.8246112310335,
      "eccentricity": 0.00067263,
      "inclination_deg": 97.288,
      "raan_deg": 335.6836,
      "arg_perigee_deg": 159.0205,
      "mean_anomaly_deg": 201.1343,
      "mean_motion_rev_day": 15.84516106
    }
  ]
}