STARLINK-37344          
1 68744U 26082S   26113.54455039  .00284067  00000+0  12081-2 0  9995
2 68744  97.2880 335.6836 0006726 159.0205 201.1343 15.84516106  1183
